ONEWEB-0291             
1 49081U 21075G   24323.18743628 -.00000043  00000+0 -14392-3 0  9990
2 49081  87.9068 120.6100 0001335  99.7793 260.3489 13.17650176157752
ONEWEB-0293             
1 49082U 21075H   24323.66836637  .00000066  00000+0  13759-3 0  9996
2 49082  87.9074 120.5357 0001370  90.4321 269.6968 13.17647379158821
ONEWEB-0294             
1 49083U 21075J   24323.81506195 -.00000425  00000+0 -12175-2 0  9998
2 49083  87.8856 105.2402 0000920  97.1847 262.9386 13.12441518160091
ONEWEB-0295             
1 49084U 21075K   24322.98407876  .00000025  00000+0  30184-4 0  9998
2 49084  87.9078 120.6508 0001333 106.8203 253.3074 13.17652325157718
ONEWEB-0296             
1 49085U 21075L   24323.79560087 -.00000104  00000+0 -32411-3 0  9997
2 49085  87.8857 105.2483 0001097 122.6155 237.5080 13.12441098160097
ONEWEB-0297             
1 49086U 21075M   24323.82640186 -.00000132  00000+0 -40296-3 0  9992
2 49086  87.8862 105.2604 0001570  99.6107 260.5199 13.12446847160707
ONEWEB-0298             
1 49087U 21075N   24323.21625207 -.00000091  00000+0 -26864-3 0  9992
2 49087  87.9077 120.6224 0001685 101.4008 258.7313 13.17648651157777
ONEWEB-0299             
1 49088U 21075P   24323.14187721  .00000036  00000+0  58774-4 0  9992
2 49088  87.9072 120.5997 0001640 102.6099 257.5216 13.17649093157740
